     2              NAVIGATION DATA                         RINEX VERSION / TYPE
CCRINEXN V1.6.0 UX  CDDIS               19-JUL-16 15:33     PGM / RUN BY / DATE 
IGS BROADCAST EPHEMERIS FILE                                COMMENT             
    0.7451D-08  0.2235D-07 -0.5960D-07 -0.1192D-06          ION ALPHA           
    0.9011D+05  0.1147D+06 -0.6554D+05 -0.5243D+06          ION BETA            
    0.000000000000D+00-0.177635683940D-14   233472     1906 DELTA-UTC: A0,A1,T,W
    17                                                      LEAP SECONDS        
                                                            END OF HEADER       
28 16  7 18 15 59 44.0 0.538091640919D-03 0.272848410532D-11 0.000000000000D+00
    0.210000000000D+02 0.687812500000D+02 0.411409994021D-08 0.260531805466D+01
    0.338815152645D-05 0.197507622652D-01 0.132434070110D-05 0.515362965012D+04
    0.143984000000D+06 0.244006514549D-06 0.109879142466D+01-0.184401869774D-06
    0.989324168683D+00 0.365781250000D+03-0.161356055875D+01-0.779318176016D-08
    0.115719105880D-09 0.100000000000D+01 0.190600000000D+04 0.000000000000D+00
    0.200000000000D+01 0.000000000000D+00-0.111758708954D-07 0.210000000000D+02
    0.142200000000D+06 0.400000000000D+01 0.000000000000D+00 0.000000000000D+00
31 16  7 18 15 59 44.0 0.258217565715D-03-0.204636307899D-11 0.000000000000D+00
    0.110000000000D+02 0.973750000000D+02 0.401373861690D-08-0.118359613472D+01
    0.470876693726D-05 0.817041238770D-02 0.113248825073D-04 0.515379189682D+04
    0.143984000000D+06-0.670552253723D-07 0.768202128988D-02-0.111758708954D-06
    0.971020891078D+00 0.166843750000D+03-0.393971274759D+00-0.774782272792D-08
    0.136434254463D-09 0.000000000000D+00 0.190600000000D+04 0.000000000000D+00
    0.200000000000D+01 0.000000000000D+00-0.135041773319D-07 0.110000000000D+02
    0.136800000000D+06 0.400000000000D+01 0.000000000000D+00 0.000000000000D+00
 1 16  7 18 16  0  0.0 0.273403711617D-04 0.125055521494D-11 0.000000000000D+00
    0.950000000000D+02-0.526562500000D+02 0.415588739511D-08-0.313144810961D+00
   -0.288337469101D-05 0.569915934466D-02 0.107455998659D-04 0.515364730644D+04
    0.144000000000D+06 0.875443220139D-07 0.312270987902D+01 0.670552253723D-07
    0.965274061711D+00 0.173093750000D+03 0.497045714783D+00-0.781175396234D-08
    0.108218793461D-09 0.100000000000D+01 0.190600000000D+04 0.000000000000D+00
    0.200000000000D+01 0.000000000000D+00 0.512227416039D-08 0.950000000000D+02
    0.143250000000D+06 0.400000000000D+01 0.000000000000D+00 0.000000000000D+00
 2 16  7 18 16  0  0.0 0.575119163841D-03-0.409272615798D-11 0.000000000000D+00
    0.990000000000D+02-0.532500000000D+02 0.472805394836D-08 0.827246482822D-01
   -0.268593430519D-05 0.158280665055D-01 0.115092843771D-04 0.515360473823D+04
    0.144000000000D+06-0.143423676491D-06 0.307608456592D+01 0.266358256340D-06
    0.944061465755D+00 0.152406250000D+03-0.210154682856D+01-0.826784418706D-08
    0.153934989755D-09 0.100000000000D+01 0.190600000000D+04 0.000000000000D+00
    0.200000000000D+01 0.000000000000D+00-0.200234353542D-07 0.990000000000D+02
    0.136800000000D+06 0.000000000000D+00 0.000000000000D+00 0.000000000000D+00
 3 16  7 18 16  0  0.0-0.739926472306D-04-0.295585778076D-11 0.000000000000D+00
    0.780000000000D+02 0.216875000000D+02 0.473448292450D-08 0.331262790973D+00
    0.116415321827D-05 0.173042644747D-03 0.614300370216D-05 0.515365427399D+04
    0.144000000000D+06-0.111758708954D-07-0.211923491400D+01-0.540167093277D-07
    0.959084385097D+00 0.263093750000D+03-0.129004367031D+01-0.808069373619D-08
    0.291440711104D-09 0.100000000000D+01 0.190600000000D+04 0.000000000000D+00
    0.200000000000D+01 0.000000000000D+00 0.186264514923D-08 0.780000000000D+02
    0.136818000000D+06 0.400000000000D+01 0.000000000000D+00 0.000000000000D+00
 4 16  7 18 16  0  0.0-0.259195920080D-03-0.341060513165D-12 0.000000000000D+00
    0.140000000000D+02 0.862187500000D+02 0.558594696283D-08 0.288759285839D+01
    0.430643558502D-05 0.848619779572D-02 0.202842056751D-05 0.515366001892D+04
    0.144000000000D+06-0.875443220139D-07 0.104542089327D+01-0.149011611938D-06
    0.983093013953D+00 0.353562500000D+03 0.903171969172D+00-0.807105047736D-08
    0.268582616115D-09 0.000000000000D+00 0.190600000000D+04 0.000000000000D+00
    0.200000000000D+01 0.630000000000D+02-0.195577740669D-07 0.140000000000D+02
    0.142170000000D+06 0.400000000000D+01 0.000000000000D+00 0.000000000000D+00
 5 16  7 18 16  0  0.0-0.104536302388D-03 0.272848410532D-11 0.000000000000D+00
    0.890000000000D+02 0.240937500000D+02 0.512342769704D-08 0.257188669146D+01
    0.116787850857D-05 0.459012703504D-02 0.594370067120D-05 0.515354896545D+04
    0.144000000000D+06-0.167638063431D-07-0.213184318319D+01-0.335276126862D-07
    0.946148395930D+00 0.259218750000D+03 0.462194181431D+00-0.825927260328D-08
    0.343585740297D-09 0.100000000000D+01 0.190600000000D+04 0.000000000000D+00
    0.200000000000D+01 0.000000000000D+00-0.107102096081D-07 0.890000000000D+02
    0.136800000000D+06 0.400000000000D+01 0.000000000000D+00 0.000000000000D+00
 6 16  7 18 16  0  0.0 0.220336019993D-03 0.522959453519D-11 0.000000000000D+00
    0.630000000000D+02-0.541250000000D+02 0.409909928223D-08-0.615573940097D-01
   -0.276975333691D-05 0.332620926201D-03 0.115763396025D-04 0.515373562050D+04
    0.144000000000D+06-0.707805156708D-07 0.311429223084D+01-0.111758708954D-07
    0.965096176724D+00 0.160062500000D+03-0.134455287862D+01-0.768996333278D-08
    0.183579068613D-09 0.100000000000D+01 0.190600000000D+04 0.000000000000D+00
    0.200000000000D+01 0.000000000000D+00 0.419095158577D-08 0.630000000000D+02
    0.136800000000D+06 0.000000000000D+00 0.000000000000D+00 0.000000000000D+00
 7 16  7 18 16  0  0.0 0.441134907305D-03-0.261479726760D-11 0.000000000000D+00
    0.260000000000D+02 0.861562500000D+02 0.409445626482D-08-0.102368504370D+01
    0.454857945442D-05 0.977348536253D-02 0.100694596767D-04 0.515364380455D+04
    0.144000000000D+06 0.219792127609D-06-0.189225527717D-02-0.372529029846D-08
    0.966210273691D+00 0.184781250000D+03-0.265952869163D+01-0.776710924556D-08
    0.750031241812D-10 0.100000000000D+01 0.190600000000D+04 0.000000000000D+00
    0.200000000000D+01 0.000000000000D+00-0.111758708954D-07 0.260000000000D+02
    0.136800000000D+06 0.400000000000D+01 0.000000000000D+00 0.000000000000D+00
 8 16  7 18 16  0  0.0-0.432338565588D-04-0.147792889038D-11 0.000000000000D+00
    0.220000000000D+02-0.110750000000D+03 0.470019578202D-08 0.262787003112D+01
   -0.552274286747D-05 0.167317106388D-02 0.362657010555D-05 0.515372240448D+04
    0.144000000000D+06 0.115483999252D-06 0.206202808621D+01-0.130385160446D-07
    0.963684985965D+00 0.309531250000D+03-0.104224882313D+01-0.830070290045D-08
   -0.337156901081D-09 0.100000000000D+01 0.190600000000D+04 0.000000000000D+00
    0.200000000000D+01 0.000000000000D+00 0.465661287308D-08 0.220000000000D+02
    0.136800000000D+06 0.400000000000D+01 0.000000000000D+00 0.000000000000D+00
 9 16  7 18 16  0  0.0 0.169848557562D-03 0.727595761418D-11 0.000000000000D+00
    0.390000000000D+02-0.253437500000D+02 0.467483758289D-08 0.140127777145D+01
   -0.126473605633D-05 0.493767089210D-03 0.743567943573D-05 0.515353664780D+04
    0.144000000000D+06 0.204890966415D-07-0.107985395159D+01 0.540167093277D-07
    0.954474465441D+00 0.232812500000D+03 0.239699754733D+01-0.805390690612D-08
   -0.401445293236D-09 0.100000000000D+01 0.190600000000D+04 0.000000000000D+00
    0.200000000000D+01 0.000000000000D+00 0.139698386192D-08 0.390000000000D+02
    0.136800000000D+06 0.400000000000D+01 0.000000000000D+00 0.000000000000D+00
12 16  7 18 16  0  0.0 0.385578721762D-03 0.909494701773D-12 0.000000000000D+00
    0.560000000000D+02 0.719062500000D+02 0.429946480425D-08-0.162101745450D+01
    0.379607081413D-05 0.610791856889D-02 0.150129199028D-05 0.515369403839D+04
    0.144000000000D+06 0.856816768646D-07 0.107509923230D+01-0.279396772385D-07
    0.990112151951D+00 0.366093750000D+03 0.781497649291D+00-0.817105464294D-08
    0.353943314588D-09 0.000000000000D+00 0.190600000000D+04 0.000000000000D+00
    0.200000000000D+01 0.000000000000D+00-0.125728547573D-07 0.560000000000D+02
    0.136800000000D+06 0.400000000000D+01 0.000000000000D+00 0.000000000000D+00
13 16  7 18 16  0  0.0-0.319606624544D-04-0.238742359215D-11 0.000000000000D+00
    0.580000000000D+02-0.153437500000D+02 0.431267964042D-08-0.892314943128D-01
   -0.962987542152D-06 0.413708307315D-02 0.828504562378D-05 0.515367959022D+04
    0.144000000000D+06-0.558793544769D-08-0.958329348207D+00-0.484287738800D-07
    0.970917313552D+00 0.224343750000D+03 0.199633098222D+01-0.789032866386D-08
   -0.483234414367D-09 0.100000000000D+01 0.190600000000D+04 0.000000000000D+00
    0.200000000000D+01 0.000000000000D+00-0.111758708954D-07 0.580000000000D+02
    0.137820000000D+06 0.400000000000D+01 0.000000000000D+00 0.000000000000D+00
14 16  7 18 16  0  0.0-0.252355821431D-04-0.193267624127D-11 0.000000000000D+00
    0.780000000000D+02-0.269687500000D+02 0.450090176634D-08 0.147170824637D+01
   -0.138394534588D-05 0.887904502451D-02 0.814162194729D-05 0.515403420830D+04
    0.144000000000D+06-0.180676579475D-06-0.995707829696D+00-0.128522515297D-06
    0.963377888739D+00 0.222500000000D+03-0.195905845403D+01-0.803033449567D-08
   -0.530736393015D-09 0.000000000000D+00 0.190600000000D+04 0.000000000000D+00
    0.200000000000D+01 0.000000000000D+00-0.931322574616D-08 0.780000000000D+02
    0.136800000000D+06 0.400000000000D+01 0.000000000000D+00 0.000000000000D+00
